OBJECT_NAME,OBJECT_ID,EPOCH,MEAN_MOTION,ECCENTRICITY,INCLINATION,RA_OF_ASC_NODE,ARG_OF_PERICENTER,MEAN_ANOMALY,EPHEMERIS_TYPE,CLASSIFICATION_TYPE,NORAD_CAT_ID,ELEMENT_SET_NO,REV_AT_EPOCH,BSTAR,MEAN_MOTION_DOT,MEAN_MOTION_DDOT
STARLINK-31066,2023-211K,2026-07-01T19:22:17.902560,15.27583932,.00015192,43.0018,306.5899,271.3751,88.6927,0,U,58676,999,13948,.5213045E-4,.1173E-4,0
STARLINK-31058,2023-211L,2026-07-01T10:32:33.674496,15.27584607,.00012157,42.9994,162.6650,275.4433,84.6280,0,U,58677,999,13986,.56166982E-4,.1284E-4,0
STARLINK-31125,2023-211M,2026-07-01T00:06:45.764640,15.27571973,.00017598,43.0051,165.4235,259.6379,100.4274,0,U,58678,999,14096,.32242199E-3,.8618E-4,0
STARLINK-31110,2023-211N,2026-07-01T23:11:22.287552,15.27579094,.00009603,43.0009,159.7386,271.1915,88.8827,0,U,58679,999,13994,.29318048E-4,.545E-5,0
STARLINK-31112,2023-211P,2026-07-01T09:15:07.203456,15.27536670,.00019184,43.0019,163.1205,271.7392,88.3240,0,U,58680,999,14103,-.18684602E-3,-.5393E-4,0
STARLINK-31147,2023-211Q,2026-07-01T09:37:16.045824,15.27580739,.0001093,43.0025,163.2422,272.4047,87.6680,0,U,58681,999,13985,.88623196E-4,.2177E-4,0
STARLINK-31144,2023-211R,2026-07-01T22:43:37.585920,15.27581106,.00019782,43.0027,159.5908,276.1944,83.8682,0,U,58682,999,13994,.39868258E-4,.835E-5,0
STARLINK-31095,2023-211S,2026-07-01T05:13:18.099840,15.27583883,.00015141,43.0021,164.4402,267.6965,92.3713,0,U,58683,999,14109,.57121983E-4,.131E-4,0
STARLINK-31107,2023-211T,2026-07-01T10:05:03.069888,15.27578804,.00018184,43.0025,163.3804,286.4129,73.6523,0,U,58684,999,13985,.46078031E-4,.1006E-4,0
STARLINK-31121,2023-211U,2026-07-01T22:49:12.040320,15.27561450,.00012824,43.0022,159.6204,269.6658,90.4047,0,U,58685,999,13994,-.41320876E-4,-.1398E-4,0
STARLINK-31137,2023-211V,2026-07-01T00:08:38.013792,15.27604719,.00017827,43.0053,165.4344,268.6302,91.4345,0,U,58686,999,13979,.93429071E-3,.25556E-3,0
STARLINK-31106,2023-211Y,2026-07-01T06:14:09.475296,15.27601998,.0002261,43.0046,163.9001,290.1679,69.8930,0,U,58689,999,13983,.29798E-3,.7952E-4,0
STARLINK-11072 [DTC],2024-002A,2026-07-01T22:51:13.598208,15.69704622,.00007207,53.1581,70.7415,68.8441,291.2654,0,U,58705,999,14438,.22966858E-4,.2195E-4,0
STARLINK-11075 [DTC],2024-002B,2026-07-01T22:01:45.266592,15.69751448,.00009019,53.1598,70.5262,93.5774,266.5348,0,U,58706,999,14438,-.30060493E-4,-.4235E-4,0
STARLINK-11077 [DTC],2024-002C,2026-07-01T23:05:21.927840,15.69690080,.00011762,53.1601,70.7966,63.5854,296.5285,0,U,58707,999,14438,-.17292865E-4,-.2681E-4,0
STARLINK-11079 [DTC],2024-002D,2026-07-01T22:44:11.223168,15.69689337,.00009679,53.1581,70.7065,63.0180,297.0936,0,U,58708,999,14438,-.19848453E-4,-.299E-4,0
STARLINK-11076 [DTC],2024-002E,2026-07-01T22:37:06.970656,15.69683778,.00013964,53.1579,70.6820,36.1596,323.9516,0,U,58709,999,14438,-.27698197E-4,-.3939E-4,0
STARLINK-11078 [DTC],2024-002F,2026-07-01T22:30:01.819584,15.69713894,.00009047,53.1586,70.6460,132.5805,227.5289,0,U,58710,999,14438,.9793033E-5,.598E-5,0
STARLINK-31031,2024-002G,2026-07-01T22:13:51.964896,15.34408494,.00013458,53.1603,58.0364,90.9007,269.2150,0,U,58711,999,13952,.13527039E-3,.4198E-4,0
STARLINK-31029,2024-002H,2026-07-01T21:33:27.493632,15.30201452,.0001412,53.1607,59.2738,84.8284,275.2878,0,U,58712,999,13950,.60096477E-4,.1421E-4,0
STARLINK-30973,2024-002J,2026-07-01T21:42:34.957728,15.30198682,.00011165,53.1605,59.3160,90.5133,269.5995,0,U,58713,999,13950,.2693957E-4,.439E-5,0
STARLINK-31100,2024-002K,2026-07-01T21:47:08.180448,15.30191113,.00011522,53.1601,59.3335,82.2059,277.9073,0,U,58714,999,13950,.14251261E-3,.3863E-4,0
STARLINK-31102,2024-002L,2026-07-01T21:31:34.718304,15.34409993,.00009394,53.1605,58.5563,89.1430,270.9680,0,U,58715,999,13951,.38588177E-4,.928E-5,0
STARLINK-31098,2024-002M,2026-07-01T21:50:10.378176,15.30202127,.00011802,53.1598,59.3448,90.7726,269.3410,0,U,58716,999,13950,.72851551E-4,.1799E-4,0
STARLINK-31093,2024-002N,2026-07-01T22:00:47.418336,15.30221756,.00012726,53.1610,59.4053,94.1812,265.9334,0,U,58717,999,13950,.61136218E-4,.1453E-4,0
STARLINK-31097,2024-002P,2026-07-01T21:56:16.192320,15.30180029,.00014358,53.1639,59.3693,98.8206,261.2958,0,U,58718,999,13950,-.10236808E-3,-.3388E-4,0
STARLINK-31051,2024-002Q,2026-07-01T22:03:50.632128,15.30209399,.00011843,53.1601,59.4009,91.0838,269.0299,0,U,58719,999,13950,.62882641E-4,.1504E-4,0
STARLINK-31027,2024-002R,2026-07-01T07:32:53.353824,15.74004634,.00051896,53.1398,31.7328,9.6607,350.4511,0,U,58720,999,13983,.97945094E-3,.144224E-2,0
STARLINK-30972,2024-002S,2026-07-01T21:44:05.588736,15.30205662,.00010907,53.1598,59.3173,102.8073,257.3050,0,U,58721,999,13950,.16852088E-3,.4636E-4,0
STARLINK-31040,2024-002T,2026-07-01T22:44:09.076992,15.34415088,.00013179,53.1602,58.1539,85.7087,274.4066,0,U,58722,999,13952,.89580205E-4,.2653E-4,0
