STARLINK-31066          
1 58676U 23211K   26182.80715165  .00001173  00000+0  52130-4 0  9999
2 58676  43.0018 306.5899 0001519 271.3751  88.6927 15.27583932139482
STARLINK-31058          
1 58677U 23211L   26182.43927864  .00001284  00000+0  56167-4 0  9997
2 58677  42.9994 162.6650 0001215 275.4433  84.6280 15.27584607139865
STARLINK-31125          
1 58678U 23211M   26182.00469635  .00008618  00000+0  32242-3 0  9993
2 58678  43.0051 165.4235 0001759 259.6379 100.4274 15.27571973140963
STARLINK-31110          
1 58679U 23211N   26182.96623018  .00000545  00000+0  29318-4 0  9998
2 58679  43.0009 159.7386 0000960 271.1915  88.8827 15.27579094139949
STARLINK-31112          
1 58680U 23211P   26182.38550004 -.00005393  00000+0 -18685-3 0  9992
2 58680  43.0019 163.1205 0001918 271.7392  88.3240 15.27536670141030
STARLINK-31147          
1 58681U 23211Q   26182.40088016  .00002177  00000+0  88623-4 0  9990
2 58681  43.0025 163.2422 0001093 272.4047  87.6680 15.27580739139851
STARLINK-31144          
1 58682U 23211R   26182.94696280  .00000835  00000+0  39868-4 0  9994
2 58682  43.0027 159.5908 0001978 276.1944  83.8682 15.27581106139949
STARLINK-31095          
1 58683U 23211S   26182.21757060  .00001310  00000+0  57122-4 0  9991
2 58683  43.0021 164.4402 0001514 267.6965  92.3713 15.27583883141095
STARLINK-31107          
1 58684U 23211T   26182.42017442  .00001006  00000+0  46078-4 0  9998
2 58684  43.0025 163.3804 0001818 286.4129  73.6523 15.27578804139851
STARLINK-31121          
1 58685U 23211U   26182.95083380 -.00001398  00000+0 -41321-4 0  9993
2 58685  43.0022 159.6204 0001282 269.6658  90.4047 15.27561450139943
STARLINK-31137          
1 58686U 23211V   26182.00599553  .00025556  00000+0  93429-3 0  9999
2 58686  43.0053 165.4344 0001782 268.6302  91.4345 15.27604719139799
STARLINK-31106          
1 58689U 23211Y   26182.25983189  .00007952  00000+0  29798-3 0  9999
2 58689  43.0046 163.9001 0002261 290.1679  69.8930 15.27601998139837
STARLINK-11072 [DTC]    
1 58705U 24002A   26182.95224072  .00002195  00000+0  22967-4 0  9999
2 58705  53.1581  70.7415 0000720  68.8441 291.2654 15.69704622144385
STARLINK-11075 [DTC]    
1 58706U 24002B   26182.91788503 -.00004235  00000+0 -30060-4 0  9992
2 58706  53.1598  70.5262 0000901  93.5774 266.5348 15.69751448144380
STARLINK-11077 [DTC]    
1 58707U 24002C   26182.96205935 -.00002681  00000+0 -17293-4 0  9997
2 58707  53.1601  70.7966 0001176  63.5854 296.5285 15.69690080144387
STARLINK-11079 [DTC]    
1 58708U 24002D   26182.94735212 -.00002990  00000+0 -19848-4 0  9993
2 58708  53.1581  70.7065 0000967  63.0180 297.0936 15.69689337144381
STARLINK-11076 [DTC]    
1 58709U 24002E   26182.94244179 -.00003939  00000+0 -27698-4 0  9997
2 58709  53.1579  70.6820 0001396  36.1596 323.9516 15.69683778144382
STARLINK-11078 [DTC]    
1 58710U 24002F   26182.93752106  .00000598  00000+0  97930-5 0  9995
2 58710  53.1586  70.6460 0000904 132.5805 227.5289 15.69713894144389
STARLINK-31031          
1 58711U 24002G   26182.92629589  .00004198  00000+0  13527-3 0  9991
2 58711  53.1603  58.0364 0001345  90.9007 269.2150 15.34408494139523
STARLINK-31029          
1 58712U 24002H   26182.89823488  .00001421  00000+0  60096-4 0  9992
2 58712  53.1607  59.2738 0001412  84.8284 275.2878 15.30201452139503
STARLINK-30973          
1 58713U 24002J   26182.90457127  .00000439  00000+0  26940-4 0  9996
2 58713  53.1605  59.3160 0001116  90.5133 269.5995 15.30198682139506
STARLINK-31100          
1 58714U 24002K   26182.90773357  .00003863  00000+0  14251-3 0  9998
2 58714  53.1601  59.3335 0001152  82.2059 277.9073 15.30191113139504
STARLINK-31102          
1 58715U 24002L   26182.89692961  .00000928  00000+0  38588-4 0  9997
2 58715  53.1605  58.5563 0000939  89.1430 270.9680 15.34409993139514
STARLINK-31098          
1 58716U 24002M   26182.90984234  .00001799  00000+0  72852-4 0  9996
2 58716  53.1598  59.3448 0001180  90.7726 269.3410 15.30202127139500
STARLINK-31093          
1 58717U 24002N   26182.91721549  .00001453  00000+0  61136-4 0  9996
2 58717  53.1610  59.4053 0001272  94.1812 265.9334 15.30221756139501
STARLINK-31097          
1 58718U 24002P   26182.91407630 -.00003388  00000+0 -10237-3 0  9995
2 58718  53.1639  59.3693 0001435  98.8206 261.2958 15.30180029139509
STARLINK-31051          
1 58719U 24002Q   26182.91933602  .00001504  00000+0  62883-4 0  9990
2 58719  53.1601  59.4009 0001184  91.0838 269.0299 15.30209399139504
STARLINK-31027          
1 58720U 24002R   26182.31450641  .00144224  00000+0  97945-3 0  9996
2 58720  53.1398  31.7328 0005189   9.6607 350.4511 15.74004634139835
STARLINK-30972          
1 58721U 24002S   26182.90562024  .00004636  00000+0  16852-3 0  9991
2 58721  53.1598  59.3173 0001090 102.8073 257.3050 15.30205662139505
STARLINK-31040          
1 58722U 24002T   26182.94732728  .00002653  00000+0  89580-4 0  9992
2 58722  53.1602  58.1539 0001317  85.7087 274.4066 15.34415088139529
